SCD 1                   
1 22490U 93009B   26160.44189470  .00000366  00000+0  49422-4 0  9999
2 22490  24.9690 255.4014 0042143  56.2102  38.1507 14.46116195759991
TECHSAT 1B (GO-32)      
1 25397U 98043D   26160.47814272  .00000062  00000+0  47013-4 0  9996
2 25397  99.0065 153.0425 0000613 183.0488 177.0687 14.24426925450238
SCD 2                   
1 25504U 98060A   26160.30632159  .00000380  00000+0  55241-4 0  9994
2 25504  24.9940 120.7585 0016892  40.6954  78.4170 14.45522730459185
DLR-TUBSAT              
1 25757U 99029B   26160.50883182  .00000094  00000+0  35022-4 0  9993
2 25757  98.6694 155.7602 0014541  18.2749 341.8965 14.52424896432136
TERRA                   
1 25994U 99068A   26160.49316786  .00000338  00000+0  77728-4 0  9998
2 25994  97.9459 210.3442 0001016 224.6888 242.2888 14.61096977408484
MAROC-TUBSAT            
1 27004U 01056D   26160.48010358 -.00000015  00000+0  35459-4 0  9995
2 27004  99.8079 337.1946 0020085 160.6309 254.5212 13.70262110225137
AQUA                    
1 27424U 02022A   26160.53625213  .00000744  00000+0  15770-3 0  9994
2 27424  98.4273 129.6665 0001411  53.9380  58.1767 14.62146575282157
SHIYAN-1 (SY-1)         
1 28220U 04012A   26160.48471654  .00012670  00000+0  39271-3 0  9995
2 28220  97.8689 238.0538 0006239  57.4904 302.6939 15.33563691209916
AURA                    
1 28376U 04026A   26160.45422418  .00000746  00000+0  16090-3 0  9998
2 28376  98.3414 116.8438 0001311  71.5200 288.6143 14.61317477165082
IRS-P5 (CARTOSAT-1)     
1 28649U 05017A   26160.49498632  .00001307  00000+0  13738-3 0  9997
2 28649  97.5309 183.9086 0002636  90.0934 270.0587 14.91029325142676
SINAH 1                 
1 28893U 05043D   26160.46849341  .00000290  00000+0  64436-4 0  9993
2 28893  98.2850 294.7455 0013289 303.2740  56.7189 14.64152558 99399
RESURS-DK 1             
1 29228U 06021A   26160.30119859  .00002125  00000+0  12552-3 0  9990
2 29228  69.9339 359.9663 0006539 298.0089  62.0415 15.13181843101380
ARIRANG-2 (KOMPSAT-2)   
1 29268U 06031A   26160.50919221  .00000402  00000+0  83864-4 0  9999
2 29268  97.8313 345.3276 0015883  96.6244 347.7567 14.64655819 60358
LAPAN-TUBSAT            
1 29709U 07001A   26160.51045325  .00000663  00000+0  82546-4 0  9998
2 29709  98.1347 159.5617 0011242 205.1460 154.9208 14.85944752 50017
HAIYANG-1B              
1 31113U 07010A   26160.45358038  .00000086  00000+0  48376-4 0  9993
2 31113  98.3490 142.5988 0012579 220.4164 139.6086 14.31024961999522
COSMO-SKYMED 1          
1 31598U 07023A   26160.51548060  .00001933  00000+0  17293-3 0  9992
2 31598  97.8855 352.3079 0001061  82.8013 277.3328 14.97064559 28641
TERRASAR-X              
1 31698U 07026A   26160.28753291  .00000433  00000+0  23833-4 0  9996
2 31698  97.4448 168.1064 0001685  80.8129 279.3296 15.19149435 52028
WORLDVIEW-1 (WV-1)      
1 32060U 07041A   26160.47982065  .00005732  00000+0  23826-3 0  9999
2 32060  97.3862 280.3356 0002947  42.6978 317.4488 15.24181177 41707
YAOGAN-3                
1 32289U 07055A   26160.54268936  .00002306  00000+0  24043-3 0  9995
2 32289  97.8158 190.4964 0001778  85.8713 274.2708 14.90752250  4731
COSMO-SKYMED 2          
1 32376U 07059A   26160.53234170  .00000374  00000+0  53581-4 0  9991
2 32376  97.8885 344.2416 0001410  85.4336 274.7039 14.82148632   873
RADARSAT-2              
1 32382U 07061A   26160.48095844  .00000386  00000+0  16667-3 0  9994
2 32382  98.5784 167.5236 0001324  82.2403 277.8930 14.29984644964859
CARTOSAT-2A             
1 32783U 08021A   26160.47040256  .00000343  00000+0  52883-4 0  9996
2 32783  97.7637 209.4425 0012752 131.3519 228.8792 14.79226585977662
HUANJING 1A (HJ-1A)     
1 33320U 08041A   26160.54695731  .00000908  00000+0  11495-3 0  9998
2 33320  97.6685 146.6813 0019225 158.7714 201.4303 14.83969547957274
HUANJING 1B (HJ-1B)     
1 33321U 08041B   26160.51257663  .00000661  00000+0  86194-4 0  9999
2 33321  97.6520 149.8429 0035308 206.6820 153.2578 14.83302970957271
GEOEYE 1                
1 33331U 08042A   26160.50084235  .00000419  00000+0  87663-4 0  9996
2 33331  98.1235 234.5293 0005566  87.9185 272.2655 14.64718674949022
THEOS                   
1 33396U 08049A   26160.50054277  .00000216  00000+0  12115-3 0  9991
2 33396  98.5572 218.0338 0001273  79.5257 280.6063 14.20132682916870
COSMO-SKYMED 3          
1 33412U 08054A   26160.50696657  .00002906  00000+0  19864-3 0  9996
2 33412  97.8289  18.9506 0014292 295.9024  64.0729 15.06901264955782
YAOGAN-4                
1 33446U 08061A   26160.34136049  .00000875  00000+0  11359-3 0  9991
2 33446  97.9308  93.9098 0015755  95.6036 264.6975 14.83184852944503
GOSAT (IBUKI)           
1 33492U 09002A   26160.29741196  .00001034  00000+0  19082-3 0  9996
2 33492  98.0882 271.4777 0001641  90.6440 269.4952 14.67539177930300
DEIMOS-1                
1 35681U 09041A   26160.52190230  .00000371  00000+0  61881-4 0  9992
2 35681  97.7399 318.0825 0001151 138.0344 222.0954 14.75228900905755
DUBAISAT-1              
1 35682U 09041B   26160.35619569  .00000713  00000+0  11316-3 0  9992
2 35682  98.0042 293.7004 0011758  95.9150 264.3399 14.75111320903941
