OBJECT_NAME,OBJECT_ID,EPOCH,MEAN_MOTION,ECCENTRICITY,INCLINATION,RA_OF_ASC_NODE,ARG_OF_PERICENTER,MEAN_ANOMALY,EPHEMERIS_TYPE,CLASSIFICATION_TYPE,NORAD_CAT_ID,ELEMENT_SET_NO,REV_AT_EPOCH,BSTAR,MEAN_MOTION_DOT,MEAN_MOTION_DDOT
SCD 1,1993-009B,2026-06-09T10:36:19.702080,14.46116195,.0042143,24.9690,255.4014,56.2102,38.1507,0,U,22490,999,75999,.49422E-4,.366E-5,0
TECHSAT 1B (GO-32),1998-043D,2026-06-09T11:28:31.531008,14.24426925,.0000613,99.0065,153.0425,183.0488,177.0687,0,U,25397,999,45023,.47013E-4,.62E-6,0
SCD 2,1998-060A,2026-06-09T07:21:06.185376,14.45522730,.0016892,24.9940,120.7585,40.6954,78.4170,0,U,25504,999,45918,.55241E-4,.38E-5,0
DLR-TUBSAT,1999-029B,2026-06-09T12:12:43.069248,14.52424896,.0014541,98.6694,155.7602,18.2749,341.8965,0,U,25757,999,43213,.35022E-4,.94E-6,0
TERRA,1999-068A,2026-06-09T11:50:09.703104,14.61096977,.0001016,97.9459,210.3442,224.6888,242.2888,0,U,25994,999,40848,.77728E-4,.338E-5,0
MAROC-TUBSAT,2001-056D,2026-06-09T11:31:20.949312,13.70262110,.0020085,99.8079,337.1946,160.6309,254.5212,0,U,27004,999,22513,.35459E-4,-.15E-6,0
AQUA,2002-022A,2026-06-09T12:52:12.184032,14.62146575,.0001411,98.4273,129.6665,53.9380,58.1767,0,U,27424,999,28215,.1577E-3,.744E-5,0
SHIYAN-1 (SY-1),2004-012A,2026-06-09T11:37:59.509056,15.33563691,.0006239,97.8689,238.0538,57.4904,302.6939,0,U,28220,999,20991,.39271E-3,.1267E-3,0
AURA,2004-026A,2026-06-09T10:54:04.969152,14.61317477,.0001311,98.3414,116.8438,71.5200,288.6143,0,U,28376,999,16508,.1609E-3,.746E-5,0
IRS-P5 (CARTOSAT-1),2005-017A,2026-06-09T11:52:46.818048,14.91029325,.0002636,97.5309,183.9086,90.0934,270.0587,0,U,28649,999,14267,.13738E-3,.1307E-4,0
SINAH 1,2005-043D,2026-06-09T11:14:37.830624,14.64152558,.0013289,98.2850,294.7455,303.2740,56.7189,0,U,28893,999,9939,.64436E-4,.29E-5,0
RESURS-DK 1,2006-021A,2026-06-09T07:13:43.558176,15.13181843,.0006539,69.9339,359.9663,298.0089,62.0415,0,U,29228,999,10138,.12552E-3,.2125E-4,0
ARIRANG-2 (KOMPSAT-2),2006-031A,2026-06-09T12:13:14.206944,14.64655819,.0015883,97.8313,345.3276,96.6244,347.7567,0,U,29268,999,6035,.83864E-4,.402E-5,0
LAPAN-TUBSAT,2007-001A,2026-06-09T12:15:03.160800,14.85944752,.0011242,98.1347,159.5617,205.1460,154.9208,0,U,29709,999,5001,.82546E-4,.663E-5,0
HAIYANG-1B,2007-010A,2026-06-09T10:53:09.344832,14.31024961,.0012579,98.3490,142.5988,220.4164,139.6086,0,U,31113,999,99952,.48376E-4,.86E-6,0
COSMO-SKYMED 1,2007-023A,2026-06-09T12:22:17.523840,14.97064559,.0001061,97.8855,352.3079,82.8013,277.3328,0,U,31598,999,2864,.17293E-3,.1933E-4,0
TERRASAR-X,2007-026A,2026-06-09T06:54:02.843424,15.19149435,.0001685,97.4448,168.1064,80.8129,279.3296,0,U,31698,999,5202,.23833E-4,.433E-5,0
WORLDVIEW-1 (WV-1),2007-041A,2026-06-09T11:30:56.504160,15.24181177,.0002947,97.3862,280.3356,42.6978,317.4488,0,U,32060,999,4170,.23826E-3,.5732E-4,0
YAOGAN-3,2007-055A,2026-06-09T13:01:28.360704,14.90752250,.0001778,97.8158,190.4964,85.8713,274.2708,0,U,32289,999,473,.24043E-3,.2306E-4,0
COSMO-SKYMED 2,2007-059A,2026-06-09T12:46:34.322880,14.82148632,.000141,97.8885,344.2416,85.4336,274.7039,0,U,32376,999,87,.53581E-4,.374E-5,0
RADARSAT-2,2007-061A,2026-06-09T11:32:34.809216,14.29984644,.0001324,98.5784,167.5236,82.2403,277.8930,0,U,32382,999,96485,.16667E-3,.386E-5,0
CARTOSAT-2A,2008-021A,2026-06-09T11:17:22.781184,14.79226585,.0012752,97.7637,209.4425,131.3519,228.8792,0,U,32783,999,97766,.52883E-4,.343E-5,0
HUANJING 1A (HJ-1A),2008-041A,2026-06-09T13:07:37.111584,14.83969547,.0019225,97.6685,146.6813,158.7714,201.4303,0,U,33320,999,95727,.11495E-3,.908E-5,0
HUANJING 1B (HJ-1B),2008-041B,2026-06-09T12:18:06.620832,14.83302970,.0035308,97.6520,149.8429,206.6820,153.2578,0,U,33321,999,95727,.86194E-4,.661E-5,0
GEOEYE 1,2008-042A,2026-06-09T12:01:12.779040,14.64718674,.0005566,98.1235,234.5293,87.9185,272.2655,0,U,33331,999,94902,.87663E-4,.419E-5,0
THEOS,2008-049A,2026-06-09T12:00:46.895328,14.20132682,.0001273,98.5572,218.0338,79.5257,280.6063,0,U,33396,999,91687,.12115E-3,.216E-5,0
COSMO-SKYMED 3,2008-054A,2026-06-09T12:10:01.911648,15.06901264,.0014292,97.8289,18.9506,295.9024,64.0729,0,U,33412,999,95578,.19864E-3,.2906E-4,0
YAOGAN-4,2008-061A,2026-06-09T08:11:33.546336,14.83184852,.0015755,97.9308,93.9098,95.6036,264.6975,0,U,33446,999,94450,.11359E-3,.875E-5,0
GOSAT (IBUKI),2009-002A,2026-06-09T07:08:16.393344,14.67539177,.0001641,98.0882,271.4777,90.6440,269.4952,0,U,33492,999,93030,.19082E-3,.1034E-4,0
DEIMOS-1,2009-041A,2026-06-09T12:31:32.358720,14.75228900,.0001151,97.7399,318.0825,138.0344,222.0954,0,U,35681,999,90575,.61881E-4,.371E-5,0
DUBAISAT-1,2009-041B,2026-06-09T08:32:55.307616,14.75111320,.0011758,98.0042,293.7004,95.9150,264.3399,0,U,35682,999,90394,.11316E-3,.713E-5,0
